IRIDIUM 159             
1 43578U 18061K   25281.13257509  .00000262  00000+0  86359-4 0  9997
2 43578  86.4021 162.0682 0002065  87.6449 272.4983 14.34218659377258
IRIDIUM 180             
1 43922U 19002A   25280.99253333  .00000009  00000+0 -38117-5 0  9990
2 43922  86.3914  99.0398 0002105  91.5160 268.6277 14.34217592352849
IRIDIUM 176             
1 43923U 19002B   25280.99880255  .00000563  00000+0  85431-4 0  9994
2 43923  86.6037  99.0174 0002813  77.6201 282.5331 14.72251738362140
IRIDIUM 168             
1 43924U 19002C   25280.49781192  .00000005  00000+0 -52394-5 0  9995
2 43924  86.3915  99.3170 0002058  88.4967 271.6465 14.34217307352757
IRIDIUM 173             
1 43925U 19002D   25280.48512643  .00000016  00000+0 -12931-5 0  9993
2 43925  86.3910  99.2213 0002216  89.9962 270.1487 14.34217474352738
IRIDIUM 169             
1 43926U 19002E   25281.11258079  .00000470  00000+0  14714-3 0  9997
2 43926  86.4214 130.6003 0003373  77.1385 283.0190 14.38609465353988
IRIDIUM 172             
1 43927U 19002F   25281.03693097  .00000065  00000+0  15983-4 0  9992
2 43927  86.3912  98.9976 0002138  96.4133 263.7307 14.34217724352827
IRIDIUM 175             
1 43928U 19002G   25281.06195025  .00001760  00000+0  27524-3 0  9990
2 43928  86.1512  45.0781 0001965  69.5524 290.5903 14.72244342362145
